#dP2021  2 22  0  0  0.00000000      96 __u+U ITR00 EXT  IAC
## 2146  86400.00000000   900.00000000 59267 0.0000000000000
+  117   C06C07C08C09C10C11C12C13C14C16C19C20C21C22C23C24C25
+        C26C27C28C29C30C32C33C34C35C36C37C38C39C40C41C42C43
+        C44C45C46E01E02E03E04E05E07E08E09E11E12E13E14E15E18
+        E19E21E24E25E26E27E30E31E33E36G01G02G03G04G05G06G07
+        G08G09G10G11G12G13G14G15G16G17G18G19G20G21G22G23G24
+        G25G26G27G28G29G30G31G32J01J02J03R01R02R03R04R05R07
+        R08R09R11R12R13R14R15R16R17R18R19R20R21R22R24  0  0
++        10 10 11  9  9  9  9 12  9 10  9  9  9  9 10  9  9
++         9 10 10  9  9  9  9  9  9  8  8 10 11  9  9 10 10
++         9  8  9  9  9  9  8  9  8  8  9  9 10  9  8  8  9
++         8  9  9  8  9  9  9  9  9  9  8  8  8  9  8  8  9
++         9  8  8  8 10  8  9  8  8  9  9  8  8  8  8  8  8
++         9  9  9  9  9  9  8  8 11 10 10 10  9  9  9  9  9
++         9 10  9 10 10  8  9  9  9  9  9  9  8  9  8  0  0
%c M  cc GPS ccc cccc cccc cccc cccc ccccc ccccc ccccc ccccc
%c cc cc ccc ccc cccc cccc cccc cccc ccccc ccccc ccccc ccccc
%f  0.0000000  0.000000000  0.00000000000  0.000000000000000
%f  0.0000000  0.000000000  0.00000000000  0.000000000000000
%i    0    0    0    0      0      0      0      0         0
%i    0    0    0    0      0      0      0      0         0
/* IAC                                ULTRA-RAPID PREDICTION
/* S/V CLOCKS ARE ALIGNED TO GNSS TIME                      
/* G:C1WC2W R:C1PC2P E:C1XC5X C:C2IC6I J:C1CC2S             
/* PCV:IGS14_2134 OL/AL:FES2004  NONE     YN ORB:CoN CLK:CoN
*  2021 02 22  8 30  0.00000000
PC06  -8361.084647  35962.670124 -19451.841320    114.097947
PC07 -15217.539052  22790.827662  32214.625707   -351.068314
PC08 -25466.456680  31505.358747 -12232.500407   -909.965638
PC09    554.528187  41432.096847  -6120.531140    716.006168
PC10    101.020805  27148.030311  32518.430405    -82.390721
PC11  -4267.982844 -26877.684847   6153.986646   -908.571882
PC12   7005.884082 -24463.281993 -11398.667801    815.693991
PC13 -12492.026208  32186.029097 -24254.706339    152.088458
PC14 -11397.040245 -19218.766605  16710.653152    195.186158
PC16  -6183.933891  37492.020034 -17975.750050   -705.858397
PC19  19811.934073  17498.302385  -8942.886874    737.002853
PC20   2976.741834  18063.531042 -21052.330783   -918.559343
PC21  16503.158845  -7793.680680  21134.502412   -850.436049
PC22  25636.808277   6835.557029   8694.929205   -889.121878
PC23 -23902.038089   2697.816442 -14157.178587   -875.874711
PC24   8749.040117 -19941.735317 -17447.451347   -766.001057
PC25 -11701.978704 -11587.089671 -22538.801335   -942.300788
PC26  22039.788382 -16806.078271  -3084.338560    944.984361
PC27 -12328.246319  17132.308529  18229.464892    487.476769
PC28 -15767.207751  -3525.577507  22758.436519   -106.519355
PC29  10792.998579  21649.845754 -13909.663020    355.819919
PC30   -972.935761  27652.856743   3513.966274    446.997914
PC32 -16438.094023   7914.523886 -21098.228659   -898.809035
PC33 -19803.390324 -17445.159436   9053.467947   -956.777380
PC34    601.945808 -27769.359586  -2852.809972   -734.327003
PC35  15931.175394   3284.615577 -22671.714697   -406.283933
PC36  11083.970554  12101.397452  22588.217426   -751.755970
PC37 -22839.933760  15895.545752   2274.125943   -867.529692
PC38 -22447.753587  32850.775648 -14098.905577    131.622798
PC39  -3530.272060  37916.606882 -17954.788841     28.717897
PC40  -4571.271724  22101.683549  35640.349940    134.103158
PC41 -25675.922140  -6983.516476  -8376.732745   -929.796290
PC42  -2156.120246 -17916.306357  21326.919755   -886.829960
PC43 -10511.719412 -22066.545345  13487.870664   -609.112487
PC44  11942.467041 -17396.853072 -18283.774106     51.465048
PC45  23861.422309  -2861.141627  14160.683551    368.828033
PC46  -7954.599463  19793.499455  18011.991487    393.903048
PE01 -28436.678701   6107.388286   5529.322983  -1051.383458
PE02  28378.355392  -6186.189345  -5652.250095    200.213960
PE03  18227.290096  -2560.439489  23181.464601   -401.416051
PE04  -4364.800091  20063.480589 -21316.473873   -714.969955
PE05  21587.728258  16694.145491  11466.444483   -302.530079
PE07 -12321.204789 -26029.473482   6829.673216   -504.083446
PE08   3901.543980 -20207.868110  21270.451224   6043.278235
PE09  12616.069404  25931.653006  -6704.067139   5757.145574
PE11   1063.516349  24295.255943 -16860.682742   6288.982656
PE12 -13111.566161  26486.468347   1431.821331   5343.735846
PE13   -779.841369 -24510.047373  16596.626442    412.495606
PE14 -15595.005189  -1303.078857  17347.347439  -1338.553072
PE15  12981.387522 -26571.313540  -1370.606441    828.067380
PE18  21539.965540    954.219631 -24434.131493  -1463.366744
PE19 -19155.666852    133.908733 -22563.550826    210.026183
PE21 -26126.738623  -6173.683077 -12484.975241   -649.847519
PE24   7721.112756  15594.334529  23925.090481   -756.900441
PE25  26013.484621   6286.059357  12637.292303   -526.966882
PE26 -14547.794204  -7414.907600  24699.922466   2119.505247
PE27  -8589.220216 -15343.061973 -23815.309301     24.635032
PE30  14766.742159 -15213.910212 -20659.150507   3161.144937
PE31 -13908.312344  15443.195947  21083.351691   -478.528416
PE33 -19094.854504  12967.221097  18536.514713   -465.918008
PE36  14057.370068   8034.507757 -24767.140872    437.285358
PG01 -13706.980046  22215.015158  -4012.008284    756.048572
PG02  18853.090291  -8788.872636 -15871.205701   -579.411323
PG03  -9354.338070  13390.099678 -21001.596131    -89.687790
PG04  -4559.740938  20272.062733 -16505.931704   -181.919165
PG05  24603.479194  -4322.852851   9143.925983    -34.377523
PG06  14095.450792   5447.558599 -21783.247973     -2.022157
PG07  -1599.848313  21016.188018  16192.157995     67.340495
PG08  -9219.058680  14014.187042  20521.540878    -11.221715
PG09   5604.573935  24987.386888  -7060.087122   -325.181527
PG10 -19823.164179 -11772.577719  13528.834606    -66.813648
PG11 -10340.293154  23027.418188   8387.752718    -17.694707
PG12  14274.949343 -10866.123827 -19783.899166     -4.567466
PG13  14595.216251  -3446.371538  21788.077312    100.042698
PG14  17995.102015  13278.042219  14328.347507     98.288482
PG15   8085.221775 -15442.844616  19589.111598   -167.730541
PG16 -25622.004981   -263.195264   7614.099028   -283.846849
PG17  13698.622039  20727.478051  -8958.748349    398.387911
PG18   -343.013094 -19547.428113  17948.224606    348.341766
PG19  15748.384365  14204.032863 -16329.361977    -35.226517
PG20  -8697.840466 -14756.211824  20306.367576    524.569919
PG21 -17243.337921  19260.499527   5687.803962     97.647657
PG22 -17945.899120  11181.677856 -15770.003323   -674.343794
PG23  -9323.329479 -14843.295256  19944.083754    118.392217
PG24  15366.403558 -21316.286595   1639.109026      1.998649
PG25  -1671.805684 -15502.734056 -21784.626360     85.476007
PG26 -26154.376240  -4431.493200  -3142.591950     48.479621
PG27 -15582.745104    271.097540  21400.547091    -81.149290
PG28  19522.798817  13130.461166  12694.673762    611.995230
PG29  -3680.136962 -25322.833868  -7081.828805   -299.551613
PG30   9006.100110  13507.228938  21039.148902   -388.491635
PG31 -16421.541918  -2988.809818 -20835.779243   -101.580057
PG32 -15853.629125 -18855.983021 -10046.748313     19.531662
PJ01 -23172.482871  17942.922830 -25715.363075   -342.692968
PJ02 -31545.701354  24725.432059  17922.498553      2.247327
PJ03 -27049.716931  26248.129028  23998.453277     -0.969231
PR01 -11523.316566   4660.492267 -22271.050658     75.374730
PR02   7391.439722  16765.313689 -17676.583774    468.021185
PR03  19106.761678  16708.260248  -2197.485963     31.202432
PR04  19792.051137   7329.355758  14347.328810     74.982717
PR05   9441.562567  -6146.856995  22893.931410     66.924539
PR07 -19329.405723 -16601.331635   1673.764185    -42.495974
PR08 -19839.986785  -7311.466352 -14229.692041    -57.546167
PR09   4581.491636 -13171.623741 -21360.988961    -20.509236
PR11 -23402.650545   5061.019045  -8779.218540      2.952682
PR12 -20129.938918  12659.608282   9285.859079    207.040308
PR13  -5132.873124  13045.260035  21289.773290    -51.075800
PR14  13421.725992   5590.649641  20966.224211     61.265361
PR15  23582.604504  -4869.377619   8419.725964    105.265346
PR16  19153.078077 -13359.212113 -10131.474658    -11.635551
PR17   5752.231122  16821.787882 -18293.378472    402.206092
PR18  10632.555079   -530.721246 -23163.582880     67.481082
PR19  10488.803935 -16637.331232 -16239.420220   -133.038202
PR20   3634.149795 -25145.259502   2562.132341   -433.881243
PR21  -6138.863298 -15797.166254  19060.729053   -189.502967
PR22 -10719.233244   1567.723010  23076.434818    -99.173970
PR24  -2914.841888  25138.799914  -3207.304919     32.484164
EOF
